OBJECT_NAME,OBJECT_ID,EPOCH,MEAN_MOTION,ECCENTRICITY,INCLINATION,RA_OF_ASC_NODE,ARG_OF_PERICENTER,MEAN_ANOMALY,EPHEMERIS_TYPE,CLASSIFICATION_TYPE,NORAD_CAT_ID,ELEMENT_SET_NO,REV_AT_EPOCH,BSTAR,MEAN_MOTION_DOT,MEAN_MOTION_DDOT
ONEWEB-0132,2020-100W,2026-06-11T13:46:10.780032,13.12445066,.0001739,87.8939,351.7892,88.4559,271.6769,0,U,47278,999,26384,.31959E-3,.128E-5,0
ONEWEB-0133,2020-100X,2026-06-11T12:20:35.278080,13.12444561,.0001653,87.8951,351.7764,87.0152,273.1166,0,U,47279,999,26399,.12924E-2,.478E-5,0
ONEWEB-0134,2020-100Y,2026-06-11T13:26:38.523840,13.12444037,.0001601,87.8950,351.7643,95.4912,264.6399,0,U,47280,999,26397,-.12108E-2,-.423E-5,0
ONEWEB-0135,2020-100Z,2026-06-11T12:45:10.774944,13.12443043,.0001482,87.8937,351.7936,92.2391,267.8907,0,U,47281,999,26399,.22268E-3,.93E-6,0
ONEWEB-0136,2020-100AA,2026-06-11T13:12:00.445824,13.12443517,.0001548,87.8945,351.7704,96.8513,263.2791,0,U,47282,999,26392,-.11027E-2,-.384E-5,0
ONEWEB-0137,2020-100AB,2026-06-11T14:00:48.509856,13.12445446,.0001951,87.8950,351.7739,88.9843,271.1509,0,U,47283,999,26383,.12503E-2,.463E-5,0
ONEWEB-0138,2020-100AC,2026-06-11T11:39:18.785376,13.12444295,.0001672,87.8949,351.7991,96.0022,264.1298,0,U,47284,999,26390,-.71377E-3,-.244E-5,0
ONEWEB-0139,2020-100AD,2026-06-11T12:38:03.744672,13.12443609,.0001783,87.8946,351.7773,91.0460,269.0872,0,U,47285,999,26398,.80416E-3,.302E-5,0
ONEWEB-0140,2020-100AE,2026-06-11T13:21:46.191168,13.12443949,.000169,87.8948,351.7622,85.5296,274.6025,0,U,47286,999,26395,-.10203E-2,-.354E-5,0
ONEWEB-0141,2020-100AF,2026-06-11T12:37:39.965664,13.12443459,.0002112,87.8948,351.7732,90.5005,269.6365,0,U,47287,999,26393,.72014E-3,.272E-5,0
ONEWEB-0142,2020-100AG,2026-06-11T14:10:47.940960,13.12443196,.0002076,87.8942,351.7822,99.0345,261.1018,0,U,47288,999,26393,.13124E-2,.485E-5,0
ONEWEB-0143,2020-100AH,2026-06-11T12:35:25.622304,13.12443381,.000183,87.8947,351.7938,89.4893,270.6445,0,U,47289,999,26390,.96328E-3,.359E-5,0
ONEWEB-0144,2020-100AJ,2026-06-11T13:43:45.191712,13.12445113,.0001747,87.8952,351.7583,101.4703,258.6622,0,U,47290,999,26383,.571E-4,.33E-6,0
ONEWEB-0145,2020-100AK,2026-06-11T13:02:15.294048,13.12443348,.0001806,87.8940,351.7920,92.4250,267.7086,0,U,47291,999,26402,-.65521E-3,-.223E-5,0
ONEWEB-0146,2020-100AL,2026-06-11T12:57:22.914720,13.12442739,.0001762,87.8947,351.7842,78.5463,281.5863,0,U,47292,999,26393,-.47435E-3,-.158E-5,0
ONEWEB-0147,2020-100AM,2026-06-11T13:58:22.234656,13.12444847,.0001644,87.8949,351.7576,89.6494,270.4822,0,U,47293,999,26383,.88873E-3,.332E-5,0
ONEWEB-0115,2021-025A,2026-06-11T16:34:56.382240,13.13469584,.0001784,87.8955,321.3174,93.5344,266.5989,0,U,48042,999,25287,-.61464E-3,-.212E-5,0
ONEWEB-0152,2021-025B,2026-06-11T16:54:26.177760,13.13470359,.0001742,87.8956,321.3117,91.5673,268.5656,0,U,48043,999,25283,-.66053E-3,-.228E-5,0
ONEWEB-0153,2021-025C,2026-06-11T16:22:44.816160,13.13469778,.0001854,87.8950,321.3192,97.6888,262.4452,0,U,48044,999,25282,-.82606E-4,-.17E-6,0
ONEWEB-0154,2021-025D,2026-06-11T10:48:47.088000,13.13469075,.0001706,87.8951,321.3628,95.5466,264.5857,0,U,48045,999,25275,.8787E-4,.45E-6,0
ONEWEB-0116,2021-025E,2026-06-11T11:44:50.163936,13.13469155,.0001744,87.8957,321.3516,91.9694,268.1635,0,U,48046,999,25290,.32216E-3,.13E-5,0
ONEWEB-0150,2021-025F,2026-06-11T16:39:48.614688,13.13469915,.000202,87.8956,321.3079,94.2178,265.9182,0,U,48047,999,25282,-.71299E-3,-.248E-5,0
ONEWEB-0107,2021-025G,2026-06-11T16:42:14.883840,13.13469863,.0001944,87.8960,321.3038,102.6895,257.4451,0,U,48048,999,25280,-.69148E-3,-.24E-5,0
ONEWEB-0101,2021-025H,2026-06-11T10:19:32.221056,13.13470550,.000172,87.8947,321.3729,99.7643,260.3680,0,U,48049,999,25274,.10379E-2,.392E-5,0
ONEWEB-0113,2021-025J,2026-06-11T16:26:15.118080,13.13894200,.0001844,87.8953,321.2328,92.8986,267.2354,0,U,48050,999,25288,-.2936E-3,-.95E-6,0
ONEWEB-0112,2021-025K,2026-06-11T16:49:33.634272,13.13470574,.0001719,87.8957,321.3010,102.8628,257.2693,0,U,48051,999,25287,-.62199E-3,-.214E-5,0
ONEWEB-0156,2021-025L,2026-06-11T11:32:39.593184,13.13470415,.0001929,87.8957,321.3546,98.0278,262.1070,0,U,48052,999,25282,-.33254E-3,-.109E-5,0
ONEWEB-0161,2021-025M,2026-06-11T16:25:10.998912,13.13470153,.0001934,87.8957,321.3154,99.5768,260.5580,0,U,48053,999,25278,-.25605E-3,-.81E-6,0
ONEWEB-0158,2021-025N,2026-06-11T11:47:18.199104,13.13472305,.0001602,87.8957,321.3512,92.1600,267.9712,0,U,48054,999,25288,.40553E-3,.161E-5,0
ONEWEB-0157,2021-025P,2026-06-11T16:03:15.564960,13.13469219,.0001964,87.8955,321.3216,106.6268,253.5077,0,U,48055,999,25284,.7813E-3,.298E-5,0
