ONEWEB-0132             
1 47278U 20100W   26162.57373588  .00000128  00000+0  31959-3 0  9994
2 47278  87.8939 351.7892 0001739  88.4559 271.6769 13.12445066263841
ONEWEB-0133             
1 47279U 20100X   26162.51429720  .00000478  00000+0  12924-2 0  9997
2 47279  87.8951 351.7764 0001653  87.0152 273.1166 13.12444561263996
ONEWEB-0134             
1 47280U 20100Y   26162.56016810 -.00000423  00000+0 -12108-2 0  9992
2 47280  87.8950 351.7643 0001601  95.4912 264.6399 13.12444037263972
ONEWEB-0135             
1 47281U 20100Z   26162.53137471  .00000093  00000+0  22268-3 0  9997
2 47281  87.8937 351.7936 0001482  92.2391 267.8907 13.12443043263994
ONEWEB-0136             
1 47282U 20100AA  26162.55000516 -.00000384  00000+0 -11027-2 0  9994
2 47282  87.8945 351.7704 0001548  96.8513 263.2791 13.12443517263926
ONEWEB-0137             
1 47283U 20100AB  26162.58389479  .00000463  00000+0  12503-2 0  9992
2 47283  87.8950 351.7739 0001951  88.9843 271.1509 13.12445446263835
ONEWEB-0138             
1 47284U 20100AC  26162.48563409 -.00000244  00000+0 -71377-3 0  9993
2 47284  87.8949 351.7991 0001672  96.0022 264.1298 13.12444295263909
ONEWEB-0139             
1 47285U 20100AD  26162.52643223  .00000302  00000+0  80416-3 0  9999
2 47285  87.8946 351.7773 0001783  91.0460 269.0872 13.12443609263987
ONEWEB-0140             
1 47286U 20100AE  26162.55678462 -.00000354  00000+0 -10203-2 0  9991
2 47286  87.8948 351.7622 0001690  85.5296 274.6025 13.12443949263951
ONEWEB-0141             
1 47287U 20100AF  26162.52615701  .00000272  00000+0  72014-3 0  9992
2 47287  87.8948 351.7732 0002112  90.5005 269.6365 13.12443459263933
ONEWEB-0142             
1 47288U 20100AG  26162.59083265  .00000485  00000+0  13124-2 0  9996
2 47288  87.8942 351.7822 0002076  99.0345 261.1018 13.12443196263938
ONEWEB-0143             
1 47289U 20100AH  26162.52460211  .00000359  00000+0  96328-3 0  9998
2 47289  87.8947 351.7938 0001830  89.4893 270.6445 13.12443381263902
ONEWEB-0144             
1 47290U 20100AJ  26162.57205083  .00000033  00000+0  57100-4 0  9994
2 47290  87.8952 351.7583 0001747 101.4703 258.6622 13.12445113263838
ONEWEB-0145             
1 47291U 20100AK  26162.54323257 -.00000223  00000+0 -65521-3 0  9994
2 47291  87.8940 351.7920 0001806  92.4250 267.7086 13.12443348264028
ONEWEB-0146             
1 47292U 20100AL  26162.53984855 -.00000158  00000+0 -47435-3 0  9992
2 47292  87.8947 351.7842 0001762  78.5463 281.5863 13.12442739263930
ONEWEB-0147             
1 47293U 20100AM  26162.58220179  .00000332  00000+0  88873-3 0  9993
2 47293  87.8949 351.7576 0001644  89.6494 270.4822 13.12444847263836
ONEWEB-0115             
1 48042U 21025A   26162.69093035 -.00000212  00000+0 -61464-3 0  9990
2 48042  87.8955 321.3174 0001784  93.5344 266.5989 13.13469584252874
ONEWEB-0152             
1 48043U 21025B   26162.70446965 -.00000228  00000+0 -66053-3 0  9993
2 48043  87.8956 321.3117 0001742  91.5673 268.5656 13.13470359252831
ONEWEB-0153             
1 48044U 21025C   26162.68246315 -.00000017  00000+0 -82606-4 0  9997
2 48044  87.8950 321.3192 0001854  97.6888 262.4452 13.13469778252827
ONEWEB-0154             
1 48045U 21025D   26162.45054500  .00000045  00000+0  87870-4 0  9993
2 48045  87.8951 321.3628 0001706  95.5466 264.5857 13.13469075252752
ONEWEB-0116             
1 48046U 21025E   26162.48946949  .00000130  00000+0  32216-3 0  9992
2 48046  87.8957 321.3516 0001744  91.9694 268.1635 13.13469155252900
ONEWEB-0150             
1 48047U 21025F   26162.69431267 -.00000248  00000+0 -71299-3 0  9994
2 48047  87.8956 321.3079 0002020  94.2178 265.9182 13.13469915252822
ONEWEB-0107             
1 48048U 21025G   26162.69600560 -.00000240  00000+0 -69148-3 0  9991
2 48048  87.8960 321.3038 0001944 102.6895 257.4451 13.13469863252802
ONEWEB-0101             
1 48049U 21025H   26162.43023404  .00000392  00000+0  10379-2 0  9997
2 48049  87.8947 321.3729 0001720  99.7643 260.3680 13.13470550252749
ONEWEB-0113             
1 48050U 21025J   26162.68489720 -.00000095  00000+0 -29360-3 0  9996
2 48050  87.8953 321.2328 0001844  92.8986 267.2354 13.13894200252884
ONEWEB-0112             
1 48051U 21025K   26162.70108373 -.00000214  00000+0 -62199-3 0  9992
2 48051  87.8957 321.3010 0001719 102.8628 257.2693 13.13470574252872
ONEWEB-0156             
1 48052U 21025L   26162.48101381 -.00000109  00000+0 -33254-3 0  9993
2 48052  87.8957 321.3546 0001929  98.0278 262.1070 13.13470415252820
ONEWEB-0161             
1 48053U 21025M   26162.68415508 -.00000081  00000+0 -25605-3 0  9995
2 48053  87.8957 321.3154 0001934  99.5768 260.5580 13.13470153252784
ONEWEB-0158             
1 48054U 21025N   26162.49118286  .00000161  00000+0  40553-3 0  9994
2 48054  87.8957 321.3512 0001602  92.1600 267.9712 13.13472305252889
ONEWEB-0157             
1 48055U 21025P   26162.66893015  .00000298  00000+0  78130-3 0  9997
2 48055  87.8955 321.3216 0001964 106.6268 253.5077 13.13469219252842
